GLOBALSTAR M035 [-]     
1 25851U 99037A   24009.68975017 -.00000095  00000+0 -11864-2 0  9994
2 25851  51.9937 144.6262 0013541 206.3557 254.9071 11.04528326 38308
GLOBALSTAR M032 [-]     
1 25852U 99037B   24009.91128379 -.00000024  00000+0  13752-2 0  9991
2 25852  51.9992   5.5095 0009046   3.0986 356.9869 11.19049074 76092
GLOBALSTAR M030 [-]     
1 25854U 99037D   24009.42077976 -.00000096  00000+0 -44926-3 0  9993
2 25854  51.9890  66.2829 0004729 179.5319 180.5503 11.55087135 89407
GLOBALSTAR M048 [-]     
1 25872U 99041A   24009.67596705 -.00000096  00000+0 -69652-3 0  9994
2 25872  51.9355 140.9457 0012717   1.6612 100.7506 11.33842445 65485
GLOBALSTAR M043 [-]     
1 25874U 99041C   24009.92802877 -.00000020  00000+0  14274-2 0  9999
2 25874  51.9368 227.1007 0013463 134.6307 329.0527 11.25674081 63833
GLOBALSTAR M028 [-]     
1 25875U 99041D   24009.28379776 -.00000113  00000+0 -78665-4 0  9996
2 25875  51.9648 318.1889 0063998  11.8492 348.3859 12.50547323124504
